NORAD_CAT_ID,OBJECT_NAME,OBJECT_TYPE,EPOCH,MEAN_MOTION,ECCENTRICITY,INCLINATION,RA_OF_ASC_NODE,ARG_OF_PERICENTER,MEAN_ANOMALY,BSTAR,MEAN_MOTION_DOT,MEAN_MOTION_DDOT,TLE_LINE0,TLE_LINE1,TLE_LINE2,SEMIMAJOR_AXIS,PERIOD,APOGEE,PERIGEE,DECAYED
51149.0,STARLINK-3360,PAYLOAD,2023-07-27 21:31:52,15.08835781,0.0001277,53.2179,279.8416,90.7759,269.338,-1.0014e-05,-4.47e-06,0.0,0 STARLINK-3360,1 51149U 22005AX  23208.89713566 -.00000447  00000-0 -10014-4 0  9996,2 51149  53.2179 279.8416 0001277  90.7759 269.3380 15.08835781 84302,6917.893,95.438,540.642,538.875,0.0
51149.0,STARLINK-3360,PAYLOAD,2023-07-28 03:53:25,15.08831125,0.0001367,53.2168,278.651,99.2193,260.8954,-2.2655e-05,-6.48e-06,0.0,0 STARLINK-3360,1 51149U 22005AX  23209.16209958 -.00000648  00000-0 -22655-4 0  9999,2 51149  53.2168 278.6510 0001367  99.2193 260.8954 15.08831125 85456,6917.908,95.438,540.718,538.827,0.0
51149.0,STARLINK-3360,PAYLOAD,2023-07-28 13:25:44,15.08833512,0.0001203,53.2171,276.8671,93.8873,266.2256,-7.7306e-05,-1.518e-05,0.0,0 STARLINK-3360,1 51149U 22005AX  23209.55954157 -.00001518  00000-0 -77306-4 0  9990,2 51149  53.2171 276.8671 0001203  93.8873 266.2256 15.08833512 84403,6917.9,95.438,540.597,538.933,0.0
51149.0,STARLINK-3360,PAYLOAD,2023-07-29 10:05:44,15.08840263,0.0001319,53.2171,273.0007,94.6977,265.4166,9.6078e-05,1.242e-05,0.0,0 STARLINK-3360,1 51149U 22005AX  23210.42065504  .00001242  00000-0  96078-4 0  9996,2 51149  53.2171 273.0007 0001319  94.6977 265.4166 15.08840263 85646,6917.88,95.438,540.657,538.832,0.0
51149.0,STARLINK-3360,PAYLOAD,2023-07-30 11:31:54,15.08841402,0.0001273,53.2168,268.2422,89.9231,270.1907,0.00017065,2.429e-05,0.0,0 STARLINK-3360,1 51149U 22005AX  23211.48049657  .00002429  00000-0  17065-3 0  9990,2 51149  53.2168 268.2422 0001273  89.9231 270.1907 15.08841402 85808,6917.876,95.437,540.622,538.86,0.0
51149.0,STARLINK-3360,PAYLOAD,2023-07-30 21:04:14,15.08837789,0.0001223,53.2166,266.4577,86.2258,273.8874,0.00012373,1.682e-05,0.0,0 STARLINK-3360,1 51149U 22005AX  23211.87794038  .00001682  00000-0  12373-3 0  9990,2 51149  53.2166 266.4577 0001223  86.2258 273.8874 15.08837789 85863,6917.887,95.438,540.598,538.906,0.0
51149.0,STARLINK-3360,PAYLOAD,2023-08-01 00:05:47,15.08843858,0.0001409,53.216,261.4026,80.7825,279.3327,6.0678e-05,6.78e-06,0.0,0 STARLINK-3360,1 51149U 22005AX  23213.00401728  .00000678  00000-0  60678-4 0  9994,2 51149  53.2160 261.4026 0001409  80.7825 279.3327 15.08843858 86034,6917.869,95.437,540.708,538.759,0.0
51149.0,STARLINK-3360,PAYLOAD,2023-08-02 03:07:20,15.08836815,0.0001367,53.2153,256.3456,87.2034,272.9114,4.2699e-05,3.92e-06,0.0,0 STARLINK-3360,1 51149U 22005AX  23214.13009974  .00000392  00000-0  42699-4 0  9992,2 51149  53.2153 256.3456 0001367  87.2034 272.9114 15.08836815 86200,6917.89,95.438,540.701,538.809,0.0
51149.0,STARLINK-3360,PAYLOAD,2023-08-03 09:19:40,15.08841844,0.0001288,53.2164,250.6979,87.9244,272.1895,3.45e-05,2.61e-06,0.0,0 STARLINK-3360,1 51149U 22005AX  23215.38865751  .00000261  00000-0  34500-4 0  9990,2 51149  53.2164 250.6979 0001288  87.9244 272.1895 15.08841844 86397,6917.875,95.437,540.631,538.849,0.0
51149.0,STARLINK-3360,PAYLOAD,2023-08-04 02:48:55,15.08833483,0.0001334,53.2165,247.427,88.5816,271.5329,3.8889e-05,3.31e-06,0.0,0 STARLINK-3360,1 51149U 22005AX  23216.11730391  .00000331  00000-0  38889-4 0  9995,2 51149  53.2165 247.4270 0001334  88.5816 271.5329 15.08833483 86508,6917.9,95.438,540.688,538.842,0.0
51149.0,STARLINK-3360,PAYLOAD,2023-08-05 10:36:37,15.08842241,0.0001417,53.2164,241.4793,99.5343,260.581,9.1788e-05,1.173e-05,0.0,0 STARLINK-3360,1 51149U 22005AX  23217.44209910  .00001173  00000-0  91788-4 0  9992,2 51149  53.2164 241.4793 0001417  99.5343 260.5810 15.08842241 86707,6917.874,95.437,540.719,538.758,0.0
51149.0,STARLINK-3360,PAYLOAD,2023-08-06 18:24:20,15.08835832,0.0001251,53.2157,235.5312,89.9349,270.1787,2.4356e-05,1e-06,0.0,0 STARLINK-3360,1 51149U 22005AX  23218.76690627  .00000100  00000-0  24356-4 0  9993,2 51149  53.2157 235.5312 0001251  89.9349 270.1787 15.08835832 86905,6917.893,95.438,540.624,538.893,0.0
51149.0,STARLINK-3360,PAYLOAD,2023-08-08 00:36:40,15.08838164,0.0001234,53.2156,229.8809,80.7728,279.3404,1.4843e-05,-5.2e-07,0.0,0 STARLINK-3360,1 51149U 22005AX  23220.02546860 -.00000052  00000-0  14843-4 0  9991,2 51149  53.2156 229.8809 0001234  80.7728 279.3404 15.08838164 87091,6917.886,95.438,540.605,538.897,0.0
51149.0,STARLINK-3360,PAYLOAD,2023-08-09 09:59:45,15.08845959,0.0001238,53.2152,223.6359,81.2946,278.8186,0.00015424,2.168e-05,0.0,0 STARLINK-3360,1 51149U 22005AX  23221.41649976  .00002168  00000-0  15424-3 0  9991,2 51149  53.2152 223.6359 0001238  81.2946 278.8186 15.08845959 87306,6917.862,95.437,540.584,538.871,0.0
51149.0,STARLINK-3360,PAYLOAD,2023-08-10 00:18:14,15.0883926,0.0001246,53.2144,220.9595,80.9598,279.1535,3.1875e-05,2.19e-06,0.0,0 STARLINK-3360,1 51149U 22005AX  23222.01266735  .00000219  00000-0  31875-4 0  9990,2 51149  53.2144 220.9595 0001246  80.9598 279.1535 15.08839260 87396,6917.883,95.438,540.61,538.886,0.0
51149.0,STARLINK-3360,PAYLOAD,2023-08-11 06:30:33,15.08841132,0.0001284,53.214,215.3091,85.0491,275.0648,-1.3067e-05,-4.96e-06,0.0,0 STARLINK-3360,1 51149U 22005AX  23223.27122676 -.00000496  00000-0 -13067-4 0  9996,2 51149  53.2140 215.3091 0001284  85.0491 275.0648 15.08841132 87583,6917.877,95.437,540.63,538.854,0.0
51149.0,STARLINK-3360,PAYLOAD,2023-08-12 09:32:07,15.08841821,0.0001239,53.2154,210.2547,89.0907,271.0227,8.2629e-05,1.027e-05,0.0,0 STARLINK-3360,1 51149U 22005AX  23224.39730508  .00001027  00000-0  82629-4 0  9998,2 51149  53.2154 210.2547 0001239  89.0907 271.0227 15.08841821 87757,6917.875,95.437,540.597,538.883,0.0
51149.0,STARLINK-3360,PAYLOAD,2023-08-12 23:50:36,15.08835169,0.0001214,53.2161,207.5781,92.8359,267.2772,2.3382e-05,8.4e-07,0.0,0 STARLINK-3360,1 51149U 22005AX  23224.99347252  .00000084  00000-0  23382-4 0  9997,2 51149  53.2161 207.5781 0001214  92.8359 267.2772 15.08835169 87840,6917.895,95.438,540.6,538.92,0.0
51149.0,STARLINK-3360,PAYLOAD,2023-08-14 07:38:18,15.08833793,0.0001299,53.2159,201.6306,87.9857,272.1284,0.00015149,2.123e-05,0.0,0 STARLINK-3360,1 51149U 22005AX  23226.31827247  .00002123  00000-0  15149-3 0  9999,2 51149  53.2159 201.6306 0001299  87.9857 272.1284 15.08833793 88043,6917.899,95.438,540.663,538.866,0.0
51149.0,STARLINK-3360,PAYLOAD,2023-08-15 07:29:05,15.08844993,0.0001328,53.2159,197.17,91.083,269.0314,9.8681e-05,1.283e-05,0.0,0 STARLINK-3360,1 51149U 22005AX  23227.31186688  .00001283  00000-0  98681-4 0  9996,2 51149  53.2159 197.1700 0001328  91.0830 269.0314 15.08844993 88199,6917.865,95.437,540.649,538.811,0.0
51149.0,STARLINK-3360,PAYLOAD,2023-08-16 02:33:43,15.08837831,0.0001363,53.2161,193.6016,89.6605,270.4543,3.5862e-05,2.83e-06,0.0,0 STARLINK-3360,1 51149U 22005AX  23228.10675383  .00000283  00000-0  35862-4 0  9990,2 51149  53.2161 193.6016 0001363  89.6605 270.4543 15.08837831 88312,6917.887,95.438,540.695,538.809,0.0
51149.0,STARLINK-3360,PAYLOAD,2023-08-17 02:24:30,15.08844693,0.0001337,53.2162,189.1409,92.4216,267.693,5.1373e-05,5.3e-06,0.0,0 STARLINK-3360,1 51149U 22005AX  23229.10034770  .00000530  00000-0  51373-4 0  9990,2 51149  53.2162 189.1409 0001337  92.4216 267.6930 15.08844693 88468,6917.866,95.437,540.656,538.806,0.0
51149.0,STARLINK-3360,PAYLOAD,2023-08-18 03:50:40,15.08839028,0.000124,53.2162,184.3827,99.3932,260.72,2.2698e-05,7.3e-07,0.0,0 STARLINK-3360,1 51149U 22005AX  23230.16019177  .00000073  00000-0  22698-4 0  9992,2 51149  53.2162 184.3827 0001240  99.3932 260.7200 15.08839028 88621,6917.883,95.438,540.606,538.891,0.0
51149.0,STARLINK-3360,PAYLOAD,2023-08-19 05:16:50,15.08840777,0.0001357,53.2167,179.6262,93.4397,266.675,-7.6967e-06,-4.1e-06,0.0,0 STARLINK-3360,1 51149U 22005AX  23231.22003430 -.00000410  00000-0 -76967-5 0  9991,2 51149  53.2167 179.6262 0001357  93.4397 266.6750 15.08840777 88780,6917.878,95.438,540.682,538.804,0.0
51149.0,STARLINK-3360,PAYLOAD,2023-08-20 03:32:15,15.08833476,0.0001409,53.2178,175.4655,102.7881,257.3269,2.8471e-05,1.65e-06,0.0,0 STARLINK-3360,1 51149U 22005AX  23232.14740209  .00000165  00000-0  28471-4 0  9996,2 51149  53.2178 175.4655 0001409 102.7881 257.3269 15.08833476 88928,6917.9,95.438,540.74,538.791,0.0
51149.0,STARLINK-3360,PAYLOAD,2023-08-21 06:33:48,15.08847086,0.0001354,53.2174,170.4078,89.8662,270.2485,0.00011517,1.546e-05,0.0,0 STARLINK-3360,1 51149U 22005AX  23233.27347393  .00001546  00000-0  11517-3 0  9994,2 51149  53.2174 170.4078 0001354  89.8662 270.2485 15.08847086 89094,6917.859,95.437,540.66,538.787,0.0
51149.0,STARLINK-3360,PAYLOAD,2023-08-22 04:49:12,15.08844826,0.0001524,53.2183,166.2427,86.847,273.2696,9.9613e-05,1.298e-05,0.0,0 STARLINK-3360,1 51149U 22005AX  23234.20083785  .00001298  00000-0  99613-4 0  9998,2 51149  53.2183 166.2427 0001524  86.8470 273.2696 15.08844826 89230,6917.866,95.437,540.785,538.676,0.0
51149.0,STARLINK-3360,PAYLOAD,2023-08-23 01:29:13,15.08842032,0.0001534,53.2181,162.3765,85.6022,274.5146,-1.2518e-06,-3.08e-06,0.0,0 STARLINK-3360,1 51149U 22005AX  23235.06196239 -.00000308  00000-0 -12518-5 0  9995,2 51149  53.2181 162.3765 0001534  85.6022 274.5146 15.08842032 89366,6917.874,95.437,540.8,538.678,0.0
51149.0,STARLINK-3360,PAYLOAD,2023-08-24 04:30:48,15.08828078,0.0001391,53.2176,157.3236,97.3686,262.7464,-0.00011032,-2.043e-05,0.0,0 STARLINK-3360,1 51149U 22005AX  23236.18805867 -.00002043  00000-0 -11032-3 0  9999,2 51149  53.2176 157.3236 0001391  97.3686 262.7464 15.08828078 88426,6917.917,95.438,540.744,538.82,0.0
51149.0,STARLINK-3360,PAYLOAD,2023-08-25 01:10:47,15.08843567,0.0001421,53.2181,153.4565,100.5247,259.5905,3.2289e-05,2.26e-06,0.0,0 STARLINK-3360,1 51149U 22005AX  23237.04916603  .00000226  00000-0  32289-4 0  9993,2 51149  53.2181 153.4565 0001421 100.5247 259.5905 15.08843567 89669,6917.869,95.437,540.718,538.751,0.0
